{
  "contact": {
    "emailID": "TEST9@GMAIL.COM",
    "primaryPhone": "9376353674",
    "alternatePhone": "3645433256",
    "billingAddress": {
      "addressLine1": "2658 WILDBERRY CT",
      "addressLine2": "",
      "city": "EDISON",
      "state": "NJ",
      "zip": "08817"
    },
    "userServiceAddressInfo": {
      "serviceAddresses": [
        {
          "billingAddress": false,
          "address": {
            "addressLine1": "CARLTON AVE",
            "addressLine2": "",
            "city": "PISCATAWAY",
            "state": "NJ",
            "zip": "08854"
          },
          "serviceLines": {
            "line": [
              "5052316366",
              "7890678589"
            ]
          }
        },
        {
          "billingAddress": false,
          "address": {
            "addressLine1": "CARLTON AVE",
            "addressLine2": "",
            "city": "PISCATAWAY",
            "state": "NJ",
            "zip": "08854"
          },
          "serviceLines": {
            "line": [
              "5052316366",
              "7890678589"
            ]
          }
        },
        {
          "billingAddress": false,
          "address": {
            "addressLine1": "CARLTON AVE",
            "addressLine2": "",
            "city": "PISCATAWAY",
            "state": "NJ",
            "zip": "08854"
          },
          "serviceLines": {
            "line": [
              "5052316366",
              "7890678589"
            ]
          }
        },
        {
          "billingAddress": true,
          "address": {
            "address": ""
          },
          "serviceLines": {
            "line": [
              "4109808522"
            ]
          }
        }
      ]
    },
    "addressListOnAccount": [
      {
        "addressLine1": "2658 WILDBERRY CT",
        "addressLine2": "",
        "city": "EDISON",
        "state": "NJ",
        "zip": "08817"
      },
      {
        "addressLine1": "2658 WILDBERRY CT",
        "addressLine2": "",
        "city": "EDISON",
        "state": "NJ",
        "zip": "08817"
      },
      {
        "addressLine1": "CARLTON AVE",
        "addressLine2": "",
        "city": "PISCATAWAY",
        "state": "NJ",
        "zip": "08854"
      }
    ],
    "errorCode": "00",
    "correlation_id": "52105127-0c02-4b83-97d7-2dda0e1f7605"
  },
  "billingaddress": {
    "addressLine1": "123 WILDBERRY CT",
    "addressLine2": "",
    "city": "EDISON",
    "zip": "08817",
    "state": "NJ"
  },
  "email": {
    "emailID": "TESgT9@GMAIL.COM"
  },
  "primaryphone": {
    "primaryPhone": "9376353678",
    "alternatePhone": "3645433256"
  },
  "serviceaddress": {
    "address": {
      "addressLine1": "2658 WILDBERRY CT",
      "addressLine2": "",
      "city": "EDISON",
      "state": "NJ",
      "zip": "08817"
    },
    "mdns": [
      "4109808522"
    ]
  }
}